STARLINK-2022           
1 47643U 21012Z   23200.40010379 -.00009851  00000+0 -64333-3 0  9997
2 47643  53.0549  60.4908 0001243 103.0956 257.0172 15.06400661134408
